ONEWEB-0267             
1 48985U 21060U   24128.60758039  .00000080  00000+0  17454-3 0  9999
2 48985  87.9145  22.1595 0001628  92.8251 267.3066 13.16596159138196
ONEWEB-0268             
1 48986U 21060V   24128.42391982 -.00000024  00000+0 -97592-4 0  9992
2 48986  87.9146  22.2020 0001711  81.8750 278.2575 13.16592242138439
ONEWEB-0270             
1 48988U 21060X   24128.42234217 -.00000030  00000+0 -11293-3 0  9991
2 48988  87.9143  22.2107 0002053  97.2119 262.9245 13.16596226138243
ONEWEB-0272             
1 48990U 21060Z   24128.43183592 -.00000059  00000+0 -18907-3 0  9994
2 48990  87.9145  22.2135 0001761  89.6927 270.4406 13.16591912138190
ONEWEB-0273             
1 48991U 21060AA  24128.60600925  .00000087  00000+0  19411-3 0  9998
2 48991  87.9145  22.1660 0001952  85.6080 274.5274 13.16597299138193
ONEWEB-0274             
1 48992U 21060AB  24128.40334518  .00000092  00000+0  20762-3 0  9996
2 48992  87.9155  22.2171 0001258  82.7570 277.3704 13.16597214138202
